start=new Date('2022-03-01T00:00:00.000Z').valueOf();
sats=[{"ARG_OF_PERICENTER":"56.1744","TIME_SYSTEM":"UTC","REF_FRAME":"TEME","GP_ID":"197361383","MEAN_MOTION":"15.06404226","PERIAPSIS":"546.086","CENTER_NAME":"EARTH","PERIOD":"95.592","SEMIMAJOR_AXIS":"6925.336","MEAN_MOTION_DDOT":"0.0000000000000","OBJECT_NAME":"STARLINK-1812","MEAN_MOTION_DOT":"0.00002242","EPHEMERIS_TYPE":"0","MEAN_ELEMENT_THEORY":"SGP4","TLE_LINE1":"1 47126U 20088E   22059.39342727  .00002242  00000-0  16933-3 0  9998","BSTAR":"0.00016933000000","OBJECT_ID":"2020-088E","RCS_SIZE":"LARGE","FILE":"3333642","TLE_LINE2":"2 47126  53.0543  62.0290 0001609  56.1744 303.9398 15.06404226 70231","NORAD_CAT_ID":"47126","APOAPSIS":"548.315","COUNTRY_CODE":"US","REV_AT_EPOCH":"7023","OBJECT_TYPE":"PAYLOAD","ELEMENT_SET_NO":"999","CLASSIFICATION_TYPE":"U","DECAY_DATE":null,"ECCENTRICITY":"0.00016090","MEAN_ANOMALY":"303.9398","SITE":"AFETR","EPOCH":"2022-02-28T09:26:32.116128","INCLINATION":"53.0543","LAUNCH_DATE":"2020-11-25","RA_OF_ASC_NODE":"62.0290"},{"MEAN_MOTION_DOT":"0.00001765","OBJECT_NAME":"STARLINK-1837","MEAN_MOTION_DDOT":"0.0000000000000","SEMIMAJOR_AXIS":"6925.343","PERIOD":"95.592","MEAN_MOTION":"15.06401681","GP_ID":"197411007","PERIAPSIS":"546.083","CENTER_NAME":"EARTH","REF_FRAME":"TEME","ARG_OF_PERICENTER":"58.4096","TIME_SYSTEM":"UTC","BSTAR":"0.00013733000000","TLE_LINE1":"1 47128U 20088G   22059.68277955  .00001765  00000-0  13733-3 0  9996","MEAN_ELEMENT_THEORY":"SGP4","EPHEMERIS_TYPE":"0","RCS_SIZE":"LARGE","OBJECT_ID":"2020-088G","OBJECT_TYPE":"PAYLOAD","REV_AT_EPOCH":"7055","COUNTRY_CODE":"US","APOAPSIS":"548.334","NORAD_CAT_ID":"47128","TLE_LINE2":"2 47128  53.0571  40.7390 0001625  58.4096 301.7051 15.06401681 70550","FILE":"3334872","DECAY_DATE":null,"ELEMENT_SET_NO":"999","CLASSIFICATION_TYPE":"U","SITE":"AFETR","MEAN_ANOMALY":"301.7051","ECCENTRICITY":"0.00016250","EPOCH":"2022-02-28T16:23:12.153120","RA_OF_ASC_NODE":"40.7390","LAUNCH_DATE":"2020-11-25","INCLINATION":"53.0571"},{"INCLINATION":"53.0555","RA_OF_ASC_NODE":"50.6045","LAUNCH_DATE":"2020-11-25","EPOCH":"2022-02-28T17:04:19.725024","MEAN_ANOMALY":"303.7497","ECCENTRICITY":"0.00018890","SITE":"AFETR","DECAY_DATE":null,"ELEMENT_SET_NO":"999","CLASSIFICATION_TYPE":"U","COUNTRY_CODE":"US","NORAD_CAT_ID":"47129","APOAPSIS":"548.480","FILE":"3334872","TLE_LINE2":"2 47129  53.0555  50.6045 0001889  56.3672 303.7497 15.06413687 70420","OBJECT_TYPE":"PAYLOAD","REV_AT_EPOCH":"7042","RCS_SIZE":"LARGE","OBJECT_ID":"2020-088H","EPHEMERIS_TYPE":"0","MEAN_ELEMENT_THEORY":"SGP4","BSTAR":"0.00007054600000","TLE_LINE1":"1 47129U 20088H   22059.71133941  .00000770  00000-0  70546-4 0  9998","MEAN_MOTION":"15.06413687","GP_ID":"197411757","PERIAPSIS":"545.863","CENTER_NAME":"EARTH","REF_FRAME":"TEME","ARG_OF_PERICENTER":"56.3672","TIME_SYSTEM":"UTC","MEAN_MOTION_DOT":"0.00000770","OBJECT_NAME":"STARLINK-1838","MEAN_MOTION_DDOT":"0.0000000000000","SEMIMAJOR_AXIS":"6925.307","PERIOD":"95.591"},{"MEAN_MOTION":"15.06405908","GP_ID":"197369511","PERIAPSIS":"545.725","CENTER_NAME":"EARTH","ARG_OF_PERICENTER":"42.4679","TIME_SYSTEM":"UTC","REF_FRAME":"TEME","OBJECT_NAME":"STARLINK-1839","MEAN_MOTION_DDOT":"0.0000000000000","MEAN_MOTION_DOT":"0.00003399","PERIOD":"95.592","SEMIMAJOR_AXIS":"6925.330","EPHEMERIS_TYPE":"0","MEAN_ELEMENT_THEORY":"SGP4","TLE_LINE1":"1 47130U 20088J   22059.49572646  .00003399  00000-0  24694-3 0  9996","BSTAR":"0.00024694000000","RCS_SIZE":"LARGE","OBJECT_ID":"2020-088J","NORAD_CAT_ID":"47130","APOAPSIS":"548.666","COUNTRY_CODE":"US","FILE":"3333898","TLE_LINE2":"2 47130  53.0534  71.5642 0002123  42.4679 317.6473 15.06405908 70402","OBJECT_TYPE":"PAYLOAD","REV_AT_EPOCH":"7040","DECAY_DATE":null,"ELEMENT_SET_NO":"999","CLASSIFICATION_TYPE":"U","MEAN_ANOMALY":"317.6473","ECCENTRICITY":"0.00021230","SITE":"AFETR","EPOCH":"2022-02-28T11:53:50.766144","INCLINATION":"53.0534","RA_OF_ASC_NODE":"71.5642","LAUNCH_DATE":"2020-11-25"},{"MEAN_ANOMALY":"295.5664","ECCENTRICITY":"0.00015200","SITE":"AFETR","DECAY_DATE":null,"CLASSIFICATION_TYPE":"U","ELEMENT_SET_NO":"999","INCLINATION":"53.0506","RA_OF_ASC_NODE":"52.1335","LAUNCH_DATE":"2020-11-25","EPOCH":"2022-02-28T08:56:04.722432","EPHEMERIS_TYPE":"0","MEAN_ELEMENT_THEORY":"SGP4","BSTAR":"0.00051098000000","TLE_LINE1":"1 47133U 20088M   22059.37227688  .00007339  00000-0  51098-3 0  9995","GP_ID":"197361883","PERIAPSIS":"546.147","MEAN_MOTION":"15.06404502","CENTER_NAME":"EARTH","REF_FRAME":"TEME","ARG_OF_PERICENTER":"64.5482","TIME_SYSTEM":"UTC","MEAN_MOTION_DOT":"0.00007339","OBJECT_NAME":"STARLINK-1843","MEAN_MOTION_DDOT":"0.0000000000000","SEMIMAJOR_AXIS":"6925.335","PERIOD":"95.592","COUNTRY_CODE":"US","NORAD_CAT_ID":"47133","APOAPSIS":"548.252","TLE_LINE2":"2 47133  53.0506  52.1335 0001520  64.5482 295.5664 15.06404502 70365","FILE":"3333642","OBJECT_TYPE":"PAYLOAD","REV_AT_EPOCH":"7036","RCS_SIZE":"LARGE","OBJECT_ID":"2020-088M"},{"FILE":"3333642","TLE_LINE2":"2 47134  53.0548  61.9522 0001705  57.3803 302.7350 15.06397951 70238","COUNTRY_CODE":"US","APOAPSIS":"548.401","NORAD_CAT_ID":"47134","REV_AT_EPOCH":"7023","OBJECT_TYPE":"PAYLOAD","OBJECT_ID":"2020-088N","RCS_SIZE":"LARGE","EPHEMERIS_TYPE":"0","MEAN_ELEMENT_THEORY":"SGP4","BSTAR":"0.00013313000000","TLE_LINE1":"1 47134U 20088N   22059.41186260  .00001702  00000-0  13313-3 0  9997","REF_FRAME":"TEME","TIME_SYSTEM":"UTC","ARG_OF_PERICENTER":"57.3803","GP_ID":"197362120","CENTER_NAME":"EARTH","PERIAPSIS":"546.039","MEAN_MOTION":"15.06397951","SEMIMAJOR_AXIS":"6925.355","PERIOD":"95.592","MEAN_MOTION_DOT":"0.00001702","OBJECT_NAME":"STARLINK-1844","MEAN_MOTION_DDOT":"0.0000000000000","INCLINATION":"53.0548","LAUNCH_DATE":"2020-11-25","RA_OF_ASC_NODE":"61.9522","EPOCH":"2022-02-28T09:53:04.928640","ECCENTRICITY":"0.00017050","MEAN_ANOMALY":"302.7350","SITE":"AFETR","CLASSIFICATION_TYPE":"U","ELEMENT_SET_NO":"999","DECAY_DATE":null},{"SEMIMAJOR_AXIS":"6925.344","PERIOD":"95.592","MEAN_MOTION_DOT":"0.00001044","OBJECT_NAME":"STARLINK-1845","MEAN_MOTION_DDOT":"0.0000000000000","REF_FRAME":"TEME","ARG_OF_PERICENTER":"60.7666","TIME_SYSTEM":"UTC","PERIAPSIS":"546.011","GP_ID":"197360383","CENTER_NAME":"EARTH","MEAN_MOTION":"15.06401530","BSTAR":"0.00008895300000","TLE_LINE1":"1 47135U 20088P   22059.36487023  .00001044  00000-0  88953-4 0  9995","MEAN_ELEMENT_THEORY":"SGP4","EPHEMERIS_TYPE":"0","OBJECT_ID":"2020-088P","RCS_SIZE":"LARGE","REV_AT_EPOCH":"7036","OBJECT_TYPE":"PAYLOAD","FILE":"3333642","TLE_LINE2":"2 47135  53.0542  52.1775 0001730  60.7666 299.3496 15.06401530 70363","COUNTRY_CODE":"US","NORAD_CAT_ID":"47135","APOAPSIS":"548.407","ELEMENT_SET_NO":"999","CLASSIFICATION_TYPE":"U","DECAY_DATE":null,"SITE":"AFETR","ECCENTRICITY":"0.00017300","MEAN_ANOMALY":"299.3496","EPOCH":"2022-02-28T08:45:24.787872","LAUNCH_DATE":"2020-11-25","RA_OF_ASC_NODE":"52.1775","INCLINATION":"53.0542"},{"COUNTRY_CODE":"US","APOAPSIS":"548.402","NORAD_CAT_ID":"47136","FILE":"3333642","TLE_LINE2":"2 47136  53.0550  61.5756 0001720  71.5698 288.5478 15.06400732 70240","OBJECT_TYPE":"PAYLOAD","REV_AT_EPOCH":"7024","RCS_SIZE":"LARGE","OBJECT_ID":"2020-088Q","MEAN_ELEMENT_THEORY":"SGP4","EPHEMERIS_TYPE":"0","BSTAR":"0.00028753000000","TLE_LINE1":"1 47136U 20088Q   22059.49665357  .00004004  00000-0  28753-3 0  9998","GP_ID":"197360626","PERIAPSIS":"546.020","MEAN_MOTION":"15.06400732","CENTER_NAME":"EARTH","REF_FRAME":"TEME","ARG_OF_PERICENTER":"71.5698","TIME_SYSTEM":"UTC","MEAN_MOTION_DOT":"0.00004004","OBJECT_NAME":"STARLINK-1846","MEAN_MOTION_DDOT":"0.0000000000000","SEMIMAJOR_AXIS":"6925.346","PERIOD":"95.592","INCLINATION":"53.0550","RA_OF_ASC_NODE":"61.5756","LAUNCH_DATE":"2020-11-25","EPOCH":"2022-02-28T11:55:10.868448","MEAN_ANOMALY":"288.5478","ECCENTRICITY":"0.00017200","SITE":"AFETR","DECAY_DATE":null,"ELEMENT_SET_NO":"999","CLASSIFICATION_TYPE":"U"},{"SITE":"AFETR","MEAN_ANOMALY":"298.7114","ECCENTRICITY":"0.00016790","DECAY_DATE":null,"ELEMENT_SET_NO":"999","CLASSIFICATION_TYPE":"U","RA_OF_ASC_NODE":"51.9459","LAUNCH_DATE":"2020-11-25","INCLINATION":"53.0542","EPOCH":"2022-02-28T09:54:24.599808","BSTAR":"0.00022054000000","TLE_LINE1":"1 47137U 20088R   22059.41278472  .00003006  00000-0  22054-3 0  9998","EPHEMERIS_TYPE":"0","MEAN_ELEMENT_THEORY":"SGP4","MEAN_MOTION_DOT":"0.00003006","MEAN_MOTION_DDOT":"0.0000000000000","OBJECT_NAME":"STARLINK-1849","SEMIMAJOR_AXIS":"6925.321","PERIOD":"95.592","GP_ID":"197361384","PERIAPSIS":"546.023","MEAN_MOTION":"15.06408966","CENTER_NAME":"EARTH","REF_FRAME":"TEME","TIME_SYSTEM":"UTC","ARG_OF_PERICENTER":"61.4044","OBJECT_TYPE":"PAYLOAD","REV_AT_EPOCH":"7037","COUNTRY_CODE":"US","APOAPSIS":"548.349","NORAD_CAT_ID":"47137","FILE":"3333642","TLE_LINE2":"2 47137  53.0542  51.9459 0001679  61.4044 298.7114 15.06408966 70372","RCS_SIZE":"LARGE","OBJECT_ID":"2020-088R"},{"SEMIMAJOR_AXIS":"6925.375","PERIOD":"95.593","MEAN_MOTION_DOT":"0.00000535","OBJECT_NAME":"STARLINK-1850","MEAN_MOTION_DDOT":"0.0000000000000","REF_FRAME":"TEME","TIME_SYSTEM":"UTC","ARG_OF_PERICENTER":"52.8102","GP_ID":"197361621","MEAN_MOTION":"15.06391520","PERIAPSIS":"546.052","CENTER_NAME":"EARTH","BSTAR":"0.00005485600000","TLE_LINE1":"1 47138U 20088S   22059.38005595  .00000535  00000-0  54856-4 0  9999","EPHEMERIS_TYPE":"0","MEAN_ELEMENT_THEORY":"SGP4","OBJECT_ID":"2020-088S","RCS_SIZE":"LARGE","REV_AT_EPOCH":"7030","OBJECT_TYPE":"PAYLOAD","TLE_LINE2":"2 47138  53.0566  57.0936 0001715  52.8102 307.3044 15.06391520 70305","FILE":"3333642","COUNTRY_CODE":"US","APOAPSIS":"548.427","NORAD_CAT_ID":"47138","ELEMENT_SET_NO":"999","CLASSIFICATION_TYPE":"U","DECAY_DATE":null,"SITE":"AFETR","ECCENTRICITY":"0.00017150","MEAN_ANOMALY":"307.3044","EPOCH":"2022-02-28T09:07:16.834080","LAUNCH_DATE":"2020-11-25","RA_OF_ASC_NODE":"57.0936","INCLINATION":"53.0566"}];
